<?xml version="1.0" encoding="UTF-8"?>
<kml xmlns="http://www.opengis.net/kml/2.2">
  <Document>
    <name>Shadyside </name>
    <Style id="icon-1899-0288D1-normal">
      <IconStyle>
        <color>ffd18802</color>
        <scale>1</scale>
        <Icon>
          <href>https://www.gstatic.com/mapspro/images/stock/503-wht-blank_maps.png</href>
        </Icon>
        <hotSpot x="32" xunits="pixels" y="64" yunits="insetPixels"/>
      </IconStyle>
      <LabelStyle>
        <scale>0</scale>
      </LabelStyle>
    </Style>
    <Style id="icon-1899-0288D1-highlight">
      <IconStyle>
        <color>ffd18802</color>
        <scale>1</scale>
        <Icon>
          <href>https://www.gstatic.com/mapspro/images/stock/503-wht-blank_maps.png</href>
        </Icon>
        <hotSpot x="32" xunits="pixels" y="64" yunits="insetPixels"/>
      </IconStyle>
      <LabelStyle>
        <scale>1</scale>
      </LabelStyle>
    </Style>
    <StyleMap id="icon-1899-0288D1">
      <Pair>
        <key>normal</key>
        <styleUrl>#icon-1899-0288D1-normal</styleUrl>
      </Pair>
      <Pair>
        <key>highlight</key>
        <styleUrl>#icon-1899-0288D1-highlight</styleUrl>
      </Pair>
    </StyleMap>
    <Style id="icon-1899-0288D1-nodesc-normal">
      <IconStyle>
        <color>ffd18802</color>
        <scale>1</scale>
        <Icon>
          <href>https://www.gstatic.com/mapspro/images/stock/503-wht-blank_maps.png</href>
        </Icon>
        <hotSpot x="32" xunits="pixels" y="64" yunits="insetPixels"/>
      </IconStyle>
      <LabelStyle>
        <scale>0</scale>
      </LabelStyle>
      <BalloonStyle>
        <text><![CDATA[<h3>$[name]</h3>]]></text>
      </BalloonStyle>
    </Style>
    <Style id="icon-1899-0288D1-nodesc-highlight">
      <IconStyle>
        <color>ffd18802</color>
        <scale>1</scale>
        <Icon>
          <href>https://www.gstatic.com/mapspro/images/stock/503-wht-blank_maps.png</href>
        </Icon>
        <hotSpot x="32" xunits="pixels" y="64" yunits="insetPixels"/>
      </IconStyle>
      <LabelStyle>
        <scale>1</scale>
      </LabelStyle>
      <BalloonStyle>
        <text><![CDATA[<h3>$[name]</h3>]]></text>
      </BalloonStyle>
    </Style>
    <StyleMap id="icon-1899-0288D1-nodesc">
      <Pair>
        <key>normal</key>
        <styleUrl>#icon-1899-0288D1-nodesc-normal</styleUrl>
      </Pair>
      <Pair>
        <key>highlight</key>
        <styleUrl>#icon-1899-0288D1-nodesc-highlight</styleUrl>
      </Pair>
    </StyleMap>
    <Placemark>
      <name>Fifth+Wilkins</name>
      <description>Fifth Ave. at Wilkins</description>
      <styleUrl>#icon-1899-0288D1</styleUrl>
      <Point>
        <coordinates>
          -79.937114,40.4478138,0
        </coordinates>
      </Point>
    </Placemark>
    <Placemark>
      <name>Fifth+S.Aiken</name>
      <description>Fifth Ave. at S. Aiken Ave.</description>
      <styleUrl>#icon-1899-0288D1</styleUrl>
      <Point>
        <coordinates>
          -79.934228,40.4483955,0
        </coordinates>
      </Point>
    </Placemark>
    <Placemark>
      <name>Fifth+Bellefont</name>
      <styleUrl>#icon-1899-0288D1-nodesc</styleUrl>
      <Point>
        <coordinates>
          -79.9325703,40.4489078,0
        </coordinates>
      </Point>
    </Placemark>
    <Placemark>
      <name>Fifth+S.Negley</name>
      <styleUrl>#icon-1899-0288D1-nodesc</styleUrl>
      <Point>
        <coordinates>
          -79.9296548,40.4498324,0
        </coordinates>
      </Point>
    </Placemark>
    <Placemark>
      <name>Fifth+Maryland</name>
      <styleUrl>#icon-1899-0288D1-nodesc</styleUrl>
      <Point>
        <coordinates>
          -79.9275075,40.4505163,0
        </coordinates>
      </Point>
    </Placemark>
    <Placemark>
      <name>Fifth+College</name>
      <styleUrl>#icon-1899-0288D1-nodesc</styleUrl>
      <Point>
        <coordinates>
          -79.9258177,40.4511939,0
        </coordinates>
      </Point>
    </Placemark>
    <Placemark>
      <name>Fifth+S.Highland</name>
      <styleUrl>#icon-1899-0288D1-nodesc</styleUrl>
      <Point>
        <coordinates>
          -79.9239958,40.451945,0
        </coordinates>
      </Point>
    </Placemark>
    <Placemark>
      <name>Fifth+Emerson</name>
      <styleUrl>#icon-1899-0288D1-nodesc</styleUrl>
      <Point>
        <coordinates>
          -79.9223972,40.4525818,0
        </coordinates>
      </Point>
    </Placemark>
    <Placemark>
      <name>Shady+Fifth</name>
      <styleUrl>#icon-1899-0288D1-nodesc</styleUrl>
      <Point>
        <coordinates>
          -79.9207289,40.4528961,0
        </coordinates>
      </Point>
    </Placemark>
    <Placemark>
      <name>Shady+Kentucky</name>
      <styleUrl>#icon-1899-0288D1-nodesc</styleUrl>
      <Point>
        <coordinates>
          -79.9212297,40.45372,0
        </coordinates>
      </Point>
    </Placemark>
    <Placemark>
      <name>Shady+Howe</name>
      <styleUrl>#icon-1899-0288D1-nodesc</styleUrl>
      <Point>
        <coordinates>
          -79.9217206,40.4545416,0
        </coordinates>
      </Point>
    </Placemark>
    <Placemark>
      <name>Shady+Walnut</name>
      <styleUrl>#icon-1899-0288D1-nodesc</styleUrl>
      <Point>
        <coordinates>
          -79.9225644,40.4558708,0
        </coordinates>
      </Point>
    </Placemark>
    <Placemark>
      <name>Shady+Alder</name>
      <styleUrl>#icon-1899-0288D1-nodesc</styleUrl>
      <Point>
        <coordinates>
          -79.9224782,40.456799,0
        </coordinates>
      </Point>
    </Placemark>
    <Placemark>
      <name>Shady+Marchand</name>
      <styleUrl>#icon-1899-0288D1-nodesc</styleUrl>
      <Point>
        <coordinates>
          -79.9224066,40.4572257,0
        </coordinates>
      </Point>
    </Placemark>
    <Placemark>
      <name>Shady+Aurelia</name>
      <styleUrl>#icon-1899-0288D1-nodesc</styleUrl>
      <Point>
        <coordinates>
          -79.9222564,40.4580951,0
        </coordinates>
      </Point>
    </Placemark>
    <Placemark>
      <name>Shady+Ellsworth</name>
      <styleUrl>#icon-1899-0288D1-nodesc</styleUrl>
      <Point>
        <coordinates>
          -79.9220137,40.4592123,0
        </coordinates>
      </Point>
    </Placemark>
    <Placemark>
      <name>Penn+Target</name>
      <styleUrl>#icon-1899-0288D1-nodesc</styleUrl>
      <Point>
        <coordinates>
          -79.9215,40.460087,0
        </coordinates>
      </Point>
    </Placemark>
    <Placemark>
      <name>Centre+Annie</name>
      <styleUrl>#icon-1899-0288D1-nodesc</styleUrl>
      <Point>
        <coordinates>
          -79.9239566,40.4602854,0
        </coordinates>
      </Point>
    </Placemark>
    <Placemark>
      <name>S.Highland+Centre</name>
      <styleUrl>#icon-1899-0288D1-nodesc</styleUrl>
      <Point>
        <coordinates>
          -79.9250299,40.4599543,0
        </coordinates>
      </Point>
    </Placemark>
    <Placemark>
      <name>Centre+Walgreens</name>
      <styleUrl>#icon-1899-0288D1-nodesc</styleUrl>
      <Point>
        <coordinates>
          -79.9268905,40.4593966,0
        </coordinates>
      </Point>
    </Placemark>
    <Placemark>
      <name>S.Beatty+Centre</name>
      <styleUrl>#icon-1899-0288D1-nodesc</styleUrl>
      <Point>
        <coordinates>
          -79.9275464,40.4593847,0
        </coordinates>
      </Point>
    </Placemark>
    <Placemark>
      <name>Penn+Wholefoods</name>
      <styleUrl>#icon-1899-0288D1-nodesc</styleUrl>
      <Point>
        <coordinates>
          -79.9279665,40.4625046,0
        </coordinates>
      </Point>
    </Placemark>
    <Placemark>
      <name>S.Negley+Penn</name>
      <styleUrl>#icon-1899-0288D1-nodesc</styleUrl>
      <Point>
        <coordinates>
          -79.9308295,40.4632602,0
        </coordinates>
      </Point>
    </Placemark>
    <Placemark>
      <name>S.Negley+Friendship</name>
      <styleUrl>#icon-1899-0288D1-nodesc</styleUrl>
      <Point>
        <coordinates>
          -79.932473,40.4605776,0
        </coordinates>
      </Point>
    </Placemark>
    <Placemark>
      <name>Friendship+Stratford</name>
      <styleUrl>#icon-1899-0288D1-nodesc</styleUrl>
      <Point>
        <coordinates>
          -79.9332977,40.4610102,0
        </coordinates>
      </Point>
    </Placemark>
    <Placemark>
      <name>Friendship+S.Fairmount</name>
      <styleUrl>#icon-1899-0288D1-nodesc</styleUrl>
      <Point>
        <coordinates>
          -79.9341581,40.4613005,0
        </coordinates>
      </Point>
    </Placemark>
    <Placemark>
      <name>Friendship+Roup</name>
      <styleUrl>#icon-1899-0288D1-nodesc</styleUrl>
      <Point>
        <coordinates>
          -79.9350647,40.461625,0
        </coordinates>
      </Point>
    </Placemark>
    <Placemark>
      <name>Friendship+S.Graham</name>
      <styleUrl>#icon-1899-0288D1-nodesc</styleUrl>
      <Point>
        <coordinates>
          -79.936314,40.4617658,0
        </coordinates>
      </Point>
    </Placemark>
    <Placemark>
      <name>Friendship+S.Aiken</name>
      <styleUrl>#icon-1899-0288D1-nodesc</styleUrl>
      <Point>
        <coordinates>
          -79.937625,40.4619092,0
        </coordinates>
      </Point>
    </Placemark>
    <Placemark>
      <name>Friendship+S.Atlantic</name>
      <styleUrl>#icon-1899-0288D1-nodesc</styleUrl>
      <Point>
        <coordinates>
          -79.9389829,40.4620147,0
        </coordinates>
      </Point>
    </Placemark>
    <Placemark>
      <name>Friendship+S.Pacific</name>
      <styleUrl>#icon-1899-0288D1-nodesc</styleUrl>
      <Point>
        <coordinates>
          -79.9403774,40.4621285,0
        </coordinates>
      </Point>
    </Placemark>
    <Placemark>
      <name>Harriet+S.Pacific</name>
      <styleUrl>#icon-1899-0288D1-nodesc</styleUrl>
      <Point>
        <coordinates>
          -79.9406872,40.4598014,0
        </coordinates>
      </Point>
    </Placemark>
    <Placemark>
      <name>Harriet+S.Atlantic</name>
      <styleUrl>#icon-1899-0288D1-nodesc</styleUrl>
      <Point>
        <coordinates>
          -79.9392669,40.4596989,0
        </coordinates>
      </Point>
    </Placemark>
    <Placemark>
      <name>Harriet+S.Aiken</name>
      <styleUrl>#icon-1899-0288D1-nodesc</styleUrl>
      <Point>
        <coordinates>
          -79.9380628,40.4595931,0
        </coordinates>
      </Point>
    </Placemark>
    <Placemark>
      <name>Harriet+S.Graham</name>
      <styleUrl>#icon-1899-0288D1-nodesc</styleUrl>
      <Point>
        <coordinates>
          -79.936739,40.4594503,0
        </coordinates>
      </Point>
    </Placemark>
    <Placemark>
      <name>Harriet+Roup</name>
      <styleUrl>#icon-1899-0288D1-nodesc</styleUrl>
      <Point>
        <coordinates>
          -79.9354953,40.4593059,0
        </coordinates>
      </Point>
    </Placemark>
    <Placemark>
      <name>S.Negley+Baum</name>
      <styleUrl>#icon-1899-0288D1-nodesc</styleUrl>
      <Point>
        <coordinates>
          -79.933848,40.458354,0
        </coordinates>
      </Point>
    </Placemark>
    <Placemark>
      <name>S.Aiken+Baum</name>
      <styleUrl>#icon-1899-0288D1-nodesc</styleUrl>
      <Point>
        <coordinates>
          -79.9385394,40.4569516,0
        </coordinates>
      </Point>
    </Placemark>
  </Document>
</kml>
